{"type": "FeatureCollection", "features": [ {"type": "Feature", "properties": {"norad_id": 33980, "name": "COSMOS 2251 DEB", "group": "cosmos-2251-debris", "lat": 45.42131540175803, "lon": 50.49297492220396, "alt_km": 705.2431119420726, "timestamp": "2025-12-26T06:43:29.904996+00:00", "meta": {"OBJECT_NAME": "COSMOS 2251 DEB", "OBJECT_ID": "1993-036FP", "EPOCH": "2025-12-25T12:58:01.936416", "MEAN_MOTION": 14.58719487, "ECCENTRICITY": 0.0027894, "INCLINATION": 74.0207, "RA_OF_ASC_NODE": 34.9975, "ARG_OF_PERICENTER": 177.8193, "MEAN_ANOMALY": 306.3648, "EPHEMERIS_TYPE": 0, "CLASSIFICATION_TYPE": "U", "NORAD_CAT_ID": 33980, "ELEMENT_SET_NO": 999, "REV_AT_EPOCH": 88981, "BSTAR": 0.00056244, "MEAN_MOTION_DOT": 2.61e-05, "MEAN_MOTION_DDOT": 0}, "tle": {"line1": "1 33980U 93036FP  25359.54030019  .00002610  00000+0  56244-3 0  9992", "line2": "2 33980  74.0207  34.9975 0027894 177.8193 306.3648 14.58719487889816"}}, "geometry": {"type": "Point", "coordinates": [50.49297492220396, 45.42131540175803]}}, {"type": "Feature", "properties": {"norad_id": 33982, "name": "COSMOS 2251 DEB", "group": "cosmos-2251-debris", "lat": -21.476108471566906, "lon": -32.31294600159083, "alt_km": 654.5267998304917, "timestamp": "2025-12-26T06:43:29.905006+00:00", "meta": {"OBJECT_NAME": "COSMOS 2251 DEB", "OBJECT_ID": "1993-036FR", "EPOCH": "2025-12-25T22:44:40.607808", "MEAN_MOTION": 14.6027252, "ECCENTRICITY": 0.00755411, "INCLINATION": 74.0714, "RA_OF_ASC_NODE": 334.7715, "ARG_OF_PERICENTER": 15.5993, "MEAN_ANOMALY": 15.3476, "EPHEMERIS_TYPE": 0, "CLASSIFICATION_TYPE": "U", "NORAD_CAT_ID": 33982, "ELEMENT_SET_NO": 999, "REV_AT_EPOCH": 89352, "BSTAR": 0.00058869957, "MEAN_MOTION_DOT": 2.928e-05, "MEAN_MOTION_DDOT": 0}, "tle": {"line1": "1 33982U 93036FR  25359.94769222  .00002928  00000+0  58870-3 0  9992", "line2": "2 33982  74.0714 334.7715 0075541  15.5993  15.3476 14.60272520893526"}}, "geometry": {"type": "Point", "coordinates": [-32.31294600159083, -21.476108471566906]}}, {"type": "Feature", "properties": {"norad_id": 33983, "name": "COSMOS 2251 DEB", "group": "cosmos-2251-debris", "lat": 14.009318877259759, "lon": -62.477683294402894, "alt_km": 715.9257590213119, "timestamp": "2025-12-26T06:43:29.905016+00:00", "meta": {"OBJECT_NAME": "COSMOS 2251 DEB", "OBJECT_ID": "1993-036FS", "EPOCH": "2025-12-25T15:10:56.088768", "MEAN_MOTION": 14.50723912, "ECCENTRICITY": 0.00211, "INCLINATION": 74.0505, "RA_OF_ASC_NODE": 122.8299, "ARG_OF_PERICENTER": 224.5856, "MEAN_ANOMALY": 160.0722, "EPHEMERIS_TYPE": 0, "CLASSIFICATION_TYPE": "U", "NORAD_CAT_ID": 33983, "ELEMENT_SET_NO": 999, "REV_AT_EPOCH": 88816, "BSTAR": 0.00062158, "MEAN_MOTION_DOT": 2.424e-05, "MEAN_MOTION_DDOT": 0}, "tle": {"line1": "1 33983U 93036FS  25359.63259362  .00002424  00000+0  62158-3 0  9993", "line2": "2 33983  74.0505 122.8299 0021100 224.5856 160.0722 14.50723912888161"}}, "geometry": {"type": "Point", "coordinates": [-62.477683294402894, 14.009318877259759]}}, {"type": "Feature", "properties": {"norad_id": 33984, "name": "COSMOS 2251 DEB", "group": "cosmos-2251-debris", "lat": -40.89498178876187, "lon": -53.426236996623345, "alt_km": 693.5861443609656, "timestamp": "2025-12-26T06:43:29.905027+00:00", "meta": {"OBJECT_NAME": "COSMOS 2251 DEB", "OBJECT_ID": "1993-036FT", "EPOCH": "2025-12-25T22:59:32.985888", "MEAN_MOTION": 14.66476535, "ECCENTRICITY": 0.0022415, "INCLINATION": 74.0099, "RA_OF_ASC_NODE": 321.5753, "ARG_OF_PERICENTER": 155.6374, "MEAN_ANOMALY": 261.2249, "EPHEMERIS_TYPE": 0, "CLASSIFICATION_TYPE": "U", "NORAD_CAT_ID": 33984, "ELEMENT_SET_NO": 999, "REV_AT_EPOCH": 89260, "BSTAR": 0.00087194487, "MEAN_MOTION_DOT": 4.819e-05, "MEAN_MOTION_DDOT": 0}, "tle": {"line1": "1 33984U 93036FT  25359.95802067  .00004819  00000+0  87194-3 0  9992", "line2": "2 33984  74.0099 321.5753 0022415 155.6374 261.2249 14.66476535892607"}}, "geometry": {"type": "Point", "coordinates": [-53.426236996623345, -40.89498178876187]}}, {"type": "Feature", "properties": {"norad_id": 33986, "name": "COSMOS 2251 DEB", "group": "cosmos-2251-debris", "lat": -73.3684551616113, "lon": -155.86265810445332, "alt_km": 745.8246077026806, "timestamp": "2025-12-26T06:43:29.905036+00:00", "meta": {"OBJECT_NAME": "COSMOS 2251 DEB", "OBJECT_ID": "1993-036FV", "EPOCH": "2025-12-24T20:26:35.700576", "MEAN_MOTION": 14.43260292, "ECCENTRICITY": 0.00410855, "INCLINATION": 74.0366, "RA_OF_ASC_NODE": 280.1744, "ARG_OF_PERICENTER": 350.3243, "MEAN_ANOMALY": 66.1991, "EPHEMERIS_TYPE": 0, "CLASSIFICATION_TYPE": "U", "NORAD_CAT_ID": 33986, "ELEMENT_SET_NO": 999, "REV_AT_EPOCH": 88203, "BSTAR": 0.00070852763, "MEAN_MOTION_DOT": 2.383e-05, "MEAN_MOTION_DDOT": 0}, "tle": {"line1": "1 33986U 93036FV  25358.85180209  .00002383  00000+0  70853-3 0  9997", "line2": "2 33986  74.0366 280.1744 0041085 350.3243  66.1991 14.43260292882037"}}, "geometry": {"type": "Point", "coordinates": [-155.86265810445332, -73.3684551616113]}}, {"type": "Feature", "properties": {"norad_id": 33990, "name": "COSMOS 2251 DEB", "group": "cosmos-2251-debris", "lat": 67.75881904036495, "lon": 39.43092422122013, "alt_km": 1368.1273468948575, "timestamp": "2025-12-26T06:43:29.905047+00:00", "meta": {"OBJECT_NAME": "COSMOS 2251 DEB", "OBJECT_ID": "1993-036FZ", "EPOCH": "2025-12-25T19:48:13.967424", "MEAN_MOTION": 13.50016164, "ECCENTRICITY": 0.04072798, "INCLINATION": 73.9282, "RA_OF_ASC_NODE": 264.9863, "ARG_OF_PERICENTER": 282.9385, "MEAN_ANOMALY": 132.1616, "EPHEMERIS_TYPE": 0, "CLASSIFICATION_TYPE": "U", "NORAD_CAT_ID": 33990, "ELEMENT_SET_NO": 999, "REV_AT_EPOCH": 82906, "BSTAR": 0.00075710968, "MEAN_MOTION_DOT": 7.82e-06, "MEAN_MOTION_DDOT": 0}, "tle": {"line1": "1 33990U 93036FZ  25359.82516166  .00000782  00000+0  75711-3 0  9994", "line2": "2 33990  73.9282 264.9863 0407279 282.9385 132.1616 13.50016164829063"}}, "geometry": {"type": "Point", "coordinates": [39.43092422122013, 67.75881904036495]}}, {"type": "Feature", "properties": {"norad_id": 33992, "name": "COSMOS 2251 DEB", "group": "cosmos-2251-debris", "lat": 6.9691643554195934, "lon": 129.61098625543409, "alt_km": 685.2229366418333, "timestamp": "2025-12-26T06:43:29.905057+00:00", "meta": {"OBJECT_NAME": "COSMOS 2251 DEB", "OBJECT_ID": "1993-036GB", "EPOCH": "2025-12-25T23:42:31.498848", "MEAN_MOTION": 14.66322147, "ECCENTRICITY": 0.00519285, "INCLINATION": 74.0248, "RA_OF_ASC_NODE": 312.1814, "ARG_OF_PERICENTER": 65.9916, "MEAN_ANOMALY": 3.5037, "EPHEMERIS_TYPE": 0, "CLASSIFICATION_TYPE": "U", "NORAD_CAT_ID": 33992, "ELEMENT_SET_NO": 999, "REV_AT_EPOCH": 89319, "BSTAR": 0.00085130079, "MEAN_MOTION_DOT": 4.765e-05, "MEAN_MOTION_DDOT": 0}, "tle": {"line1": "1 33992U 93036GB  25359.98786457  .00004765  00000+0  85130-3 0  9996", "line2": "2 33992  74.0248 312.1814 0051928  65.9916   3.5037 14.66322147893198"}}, "geometry": {"type": "Point", "coordinates": [129.61098625543409, 6.9691643554195934]}}, {"type": "Feature", "properties": {"norad_id": 33994, "name": "COSMOS 2251 DEB", "group": "cosmos-2251-debris", "lat": -52.1491384249671, "lon": 143.74633735666023, "alt_km": 744.0751174354382, "timestamp": "2025-12-26T06:43:29.905068+00:00", "meta": {"OBJECT_NAME": "COSMOS 2251 DEB", "OBJECT_ID": "1993-036GD", "EPOCH": "2025-12-25T21:42:48.339360", "MEAN_MOTION": 14.41222677, "ECCENTRICITY": 0.00240213, "INCLINATION": 74.0415, "RA_OF_ASC_NODE": 166.0471, "ARG_OF_PERICENTER": 298.1617, "MEAN_ANOMALY": 219.2994, "EPHEMERIS_TYPE": 0, "CLASSIFICATION_TYPE": "U", "NORAD_CAT_ID": 33994, "ELEMENT_SET_NO": 999, "REV_AT_EPOCH": 88609, "BSTAR": 0.0001007819, "MEAN_MOTION_DOT": 3e-06, "MEAN_MOTION_DDOT": 0}, "tle": {"line1": "1 33994U 93036GD  25359.90472615  .00000300  00000+0  10078-3 0  9998", "line2": "2 33994  74.0415 166.0471 0024021 298.1617 219.2994 14.41222677886092"}}, "geometry": {"type": "Point", "coordinates": [143.74633735666023, -52.1491384249671]}}, {"type": "Feature", "properties": {"norad_id": 33995, "name": "COSMOS 2251 DEB", "group": "cosmos-2251-debris", "lat": 63.07764708264457, "lon": 128.8258288481442, "alt_km": 735.2065784843471, "timestamp": "2025-12-26T06:43:29.905078+00:00", "meta": {"OBJECT_NAME": "COSMOS 2251 DEB", "OBJECT_ID": "1993-036GE", "EPOCH": "2025-12-25T17:01:24.888576", "MEAN_MOTION": 14.34833679, "ECCENTRICITY": 0.00592298, "INCLINATION": 74.0614, "RA_OF_ASC_NODE": 95.6244, "ARG_OF_PERICENTER": 106.3202, "MEAN_ANOMALY": 254.4476, "EPHEMERIS_TYPE": 0, "CLASSIFICATION_TYPE": "U", "NORAD_CAT_ID": 33995, "ELEMENT_SET_NO": 999, "REV_AT_EPOCH": 87705, "BSTAR": 0.00083404583, "MEAN_MOTION_DOT": 2.39e-05, "MEAN_MOTION_DDOT": 0}, "tle": {"line1": "1 33995U 93036GE  25359.70931584  .00002390  00000+0  83405-3 0  9997", "line2": "2 33995  74.0614  95.6244 0059229 106.3202 254.4476 14.34833679877051"}}, "geometry": {"type": "Point", "coordinates": [128.8258288481442, 63.07764708264457]}}, {"type": "Feature", "properties": {"norad_id": 33999, "name": "COSMOS 2251 DEB", "group": "cosmos-2251-debris", "lat": 69.74016733649441, "lon": -104.82707789379062, "alt_km": 581.1917636873668, "timestamp": "2025-12-26T06:43:29.905088+00:00", "meta": {"OBJECT_NAME": "COSMOS 2251 DEB", "OBJECT_ID": "1993-036GJ", "EPOCH": "2025-12-25T15:48:48.190176", "MEAN_MOTION": 14.83609193, "ECCENTRICITY": 0.0044371, "INCLINATION": 73.9178, "RA_OF_ASC_NODE": 205.0064, "ARG_OF_PERICENTER": 96.554, "MEAN_ANOMALY": 264.0692, "EPHEMERIS_TYPE": 0, "CLASSIFICATION_TYPE": "U", "NORAD_CAT_ID": 33999, "ELEMENT_SET_NO": 999, "REV_AT_EPOCH": 89442, "BSTAR": 0.0012836, "MEAN_MOTION_DOT": 0.00010754, "MEAN_MOTION_DDOT": 0}, "tle": {"line1": "1 33999U 93036GJ  25359.65889109  .00010754  00000+0  12836-2 0  9992", "line2": "2 33999  73.9178 205.0064 0044371  96.5540 264.0692 14.83609193894425"}}, "geometry": {"type": "Point", "coordinates": [-104.82707789379062, 69.74016733649441]}}]}